{"type": "FeatureCollection", "features": [{"type": "Feature", "properties": {"norad_id": 25590, "name": "COSMOS 2361", "group": "musson", "lat": -61.14712944689532, "lon": 178.94534141585552, "alt_km": 976.2100130436384, "timestamp": "2025-12-10T05:46:14.091992+00:00", "meta": {"OBJECT_NAME": "COSMOS 2361", "OBJECT_ID": "1998-076A", "EPOCH": "2025-12-09T18:56:43.982016", "MEAN_MOTION": 13.73217061, "ECCENTRICITY": 0.0030059, "INCLINATION": 82.9338, "RA_OF_ASC_NODE": 346.2687, "ARG_OF_PERICENTER": 274.1725, "MEAN_ANOMALY": 259.3866, "EPHEMERIS_TYPE": 0, "CLASSIFICATION_TYPE": "U", "NORAD_CAT_ID": 25590, "ELEMENT_SET_NO": 999, "REV_AT_EPOCH": 35070, "BSTAR": 9.2375e-05, "MEAN_MOTION_DOT": 1.01e-06, "MEAN_MOTION_DDOT": 0}, "tle": {"line1": "1 25590U 98076A   25343.78939794  .00000101  00000+0  92375-4 0  9995", "line2": "2 25590  82.9338 346.2687 0030059 274.1725 259.3866 13.73217061350702"}}, "geometry": {"type": "Point", "coordinates": [178.94534141585552, -61.14712944689532]}}, {"type": "Feature", "properties": {"norad_id": 26818, "name": "COSMOS 2378", "group": "musson", "lat": -52.731542892956334, "lon": -7.8114922294428055, "alt_km": 993.5900542549098, "timestamp": "2025-12-10T05:46:14.092014+00:00", "meta": {"OBJECT_NAME": "COSMOS 2378", "OBJECT_ID": "2001-023A", "EPOCH": "2025-12-09T11:20:25.595808", "MEAN_MOTION": 13.74141611, "ECCENTRICITY": 0.00322219, "INCLINATION": 82.9273, "RA_OF_ASC_NODE": 2.1477, "ARG_OF_PERICENTER": 214.1503, "MEAN_ANOMALY": 255.5383, "EPHEMERIS_TYPE": 0, "CLASSIFICATION_TYPE": "U", "NORAD_CAT_ID": 26818, "ELEMENT_SET_NO": 999, "REV_AT_EPOCH": 22878, "BSTAR": 6.2265285e-05, "MEAN_MOTION_DOT": 7.4e-07, "MEAN_MOTION_DDOT": 0}, "tle": {"line1": "1 26818U 01023A   25343.47251847  .00000074  00000+0  62265-4 0  9991", "line2": "2 26818  82.9273   2.1477 0032221 214.1503 255.5383 13.74141611228782"}}, "geometry": {"type": "Point", "coordinates": [-7.8114922294428055, -52.731542892956334]}}, {"type": "Feature", "properties": {"norad_id": 27436, "name": "COSMOS 2389", "group": "musson", "lat": 34.85717799777918, "lon": 123.89062332812178, "alt_km": 970.8656224964534, "timestamp": "2025-12-10T05:46:14.092028+00:00", "meta": {"OBJECT_NAME": "COSMOS 2389", "OBJECT_ID": "2002-026A", "EPOCH": "2025-12-09T20:27:51.412032", "MEAN_MOTION": 13.75154194, "ECCENTRICITY": 0.004768, "INCLINATION": 82.95, "RA_OF_ASC_NODE": 309.122, "ARG_OF_PERICENTER": 68.5853, "MEAN_ANOMALY": 317.0736, "EPHEMERIS_TYPE": 0, "CLASSIFICATION_TYPE": "U", "NORAD_CAT_ID": 27436, "ELEMENT_SET_NO": 999, "REV_AT_EPOCH": 18109, "BSTAR": 9.4732e-05, "MEAN_MOTION_DOT": 1.07e-06, "MEAN_MOTION_DDOT": 0}, "tle": {"line1": "1 27436U 02026A   25343.85267838  .00000107  00000+0  94732-4 0  9992", "line2": "2 27436  82.9500 309.1220 0047680  68.5853 317.0736 13.75154194181091"}}, "geometry": {"type": "Point", "coordinates": [123.89062332812178, 34.85717799777918]}}, {"type": "Feature", "properties": {"norad_id": 27818, "name": "COSMOS 2398", "group": "musson", "lat": 57.46451397342265, "lon": 83.35233993918834, "alt_km": 961.5942158013131, "timestamp": "2025-12-10T05:46:14.092039+00:00", "meta": {"OBJECT_NAME": "COSMOS 2398", "OBJECT_ID": "2003-023A", "EPOCH": "2025-12-09T14:16:24.424896", "MEAN_MOTION": 13.72385218, "ECCENTRICITY": 0.0032474, "INCLINATION": 82.9483, "RA_OF_ASC_NODE": 275.0158, "ARG_OF_PERICENTER": 120.2105, "MEAN_ANOMALY": 53.1442, "EPHEMERIS_TYPE": 0, "CLASSIFICATION_TYPE": "U", "NORAD_CAT_ID": 27818, "ELEMENT_SET_NO": 999, "REV_AT_EPOCH": 12773, "BSTAR": 9.6723e-05, "MEAN_MOTION_DOT": 1.04e-06, "MEAN_MOTION_DDOT": 0}, "tle": {"line1": "1 27818U 03023A   25343.59472714  .00000104  00000+0  96723-4 0  9995", "line2": "2 27818  82.9483 275.0158 0032474 120.2105  53.1442 13.72385218127730"}}, "geometry": {"type": "Point", "coordinates": [83.35233993918834, 57.46451397342265]}}, {"type": "Feature", "properties": {"norad_id": 28380, "name": "COSMOS 2407", "group": "musson", "lat": -76.21797512301715, "lon": -175.5010460821855, "alt_km": 1006.963310770614, "timestamp": "2025-12-10T05:46:14.092050+00:00", "meta": {"OBJECT_NAME": "COSMOS 2407", "OBJECT_ID": "2004-028A", "EPOCH": "2025-12-09T14:37:11.798112", "MEAN_MOTION": 13.76313188, "ECCENTRICITY": 0.0040424, "INCLINATION": 82.9611, "RA_OF_ASC_NODE": 215.2104, "ARG_OF_PERICENTER": 63.3371, "MEAN_ANOMALY": 332.8285, "EPHEMERIS_TYPE": 0, "CLASSIFICATION_TYPE": "U", "NORAD_CAT_ID": 28380, "ELEMENT_SET_NO": 999, "REV_AT_EPOCH": 7380, "BSTAR": 8.1837e-05, "MEAN_MOTION_DOT": 9.6e-07, "MEAN_MOTION_DDOT": 0}, "tle": {"line1": "1 28380U 04028A   25343.60916433  .00000096  00000+0  81837-4 0  9999", "line2": "2 28380  82.9611 215.2104 0040424  63.3371 332.8285 13.76313188 73802"}}, "geometry": {"type": "Point", "coordinates": [-175.5010460821855, -76.21797512301715]}}, {"type": "Feature", "properties": {"norad_id": 28521, "name": "COSMOS 2414", "group": "musson", "lat": 78.64172681312424, "lon": -135.4200644028399, "alt_km": 916.2689248128709, "timestamp": "2025-12-10T05:46:14.092061+00:00", "meta": {"OBJECT_NAME": "COSMOS 2414", "OBJECT_ID": "2005-002A", "EPOCH": "2025-12-09T12:04:42.141792", "MEAN_MOTION": 13.8790242, "ECCENTRICITY": 0.0040705, "INCLINATION": 82.9495, "RA_OF_ASC_NODE": 187.1073, "ARG_OF_PERICENTER": 148.7649, "MEAN_ANOMALY": 211.5945, "EPHEMERIS_TYPE": 0, "CLASSIFICATION_TYPE": "U", "NORAD_CAT_ID": 28521, "ELEMENT_SET_NO": 999, "REV_AT_EPOCH": 5750, "BSTAR": 8.3686963e-05, "MEAN_MOTION_DOT": 1.16e-06, "MEAN_MOTION_DDOT": 0}, "tle": {"line1": "1 28521U 05002A   25343.50326553  .00000116  00000+0  83687-4 0  9994", "line2": "2 28521  82.9495 187.1073 0040705 148.7649 211.5945 13.87902420 57509"}}, "geometry": {"type": "Point", "coordinates": [-135.4200644028399, 78.64172681312424]}}, {"type": "Feature", "properties": {"norad_id": 32052, "name": "COSMOS 2429", "group": "musson", "lat": -30.164219375104395, "lon": -18.954595574944815, "alt_km": 979.4050321802588, "timestamp": "2025-12-10T05:46:14.092072+00:00", "meta": {"OBJECT_NAME": "COSMOS 2429", "OBJECT_ID": "2007-038A", "EPOCH": "2025-12-09T10:42:32.023872", "MEAN_MOTION": 13.75148904, "ECCENTRICITY": 0.00393967, "INCLINATION": 82.9802, "RA_OF_ASC_NODE": 345.737, "ARG_OF_PERICENTER": 46.8383, "MEAN_ANOMALY": 313.6055, "EPHEMERIS_TYPE": 0, "CLASSIFICATION_TYPE": "U", "NORAD_CAT_ID": 32052, "ELEMENT_SET_NO": 999, "REV_AT_EPOCH": 91557, "BSTAR": 7.3832477e-05, "MEAN_MOTION_DOT": 8.6e-07, "MEAN_MOTION_DDOT": 0}, "tle": {"line1": "1 32052U 07038A   25343.44620398  .00000086  00000+0  73832-4 0  9993", "line2": "2 32052  82.9802 345.7370 0039396  46.8383 313.6055 13.75148904915576"}}, "geometry": {"type": "Point", "coordinates": [-18.954595574944815, -30.164219375104395]}}, {"type": "Feature", "properties": {"norad_id": 35635, "name": "COSMOS 2454", "group": "musson", "lat": 65.34342486939106, "lon": -25.08730256394495, "alt_km": 910.003841955594, "timestamp": "2025-12-10T05:46:14.092082+00:00", "meta": {"OBJECT_NAME": "COSMOS 2454", "OBJECT_ID": "2009-039A", "EPOCH": "2025-12-09T18:54:37.394784", "MEAN_MOTION": 13.89927975, "ECCENTRICITY": 0.0020478, "INCLINATION": 82.9555, "RA_OF_ASC_NODE": 170.8826, "ARG_OF_PERICENTER": 81.6227, "MEAN_ANOMALY": 288.9561, "EPHEMERIS_TYPE": 0, "CLASSIFICATION_TYPE": "U", "NORAD_CAT_ID": 35635, "ELEMENT_SET_NO": 999, "REV_AT_EPOCH": 83109, "BSTAR": 5.9146e-05, "MEAN_MOTION_DOT": 8.9e-07, "MEAN_MOTION_DDOT": 0}, "tle": {"line1": "1 35635U 09039A   25343.78793281  .00000089  00000+0  59146-4 0  9990", "line2": "2 35635  82.9555 170.8826 0020478  81.6227 288.9561 13.89927975831097"}}, "geometry": {"type": "Point", "coordinates": [-25.08730256394495, 65.34342486939106]}}, {"type": "Feature", "properties": {"norad_id": 36519, "name": "COSMOS 2463", "group": "musson", "lat": -41.54293201853979, "lon": 22.265030266179, "alt_km": 976.5032377922898, "timestamp": "2025-12-10T05:46:14.092092+00:00", "meta": {"OBJECT_NAME": "COSMOS 2463", "OBJECT_ID": "2010-017A", "EPOCH": "2025-12-09T12:59:58.877088", "MEAN_MOTION": 13.71648838, "ECCENTRICITY": 0.003486, "INCLINATION": 82.9616, "RA_OF_ASC_NODE": 29.0627, "ARG_OF_PERICENTER": 297.2558, "MEAN_ANOMALY": 172.124, "EPHEMERIS_TYPE": 0, "CLASSIFICATION_TYPE": "U", "NORAD_CAT_ID": 36519, "ELEMENT_SET_NO": 999, "REV_AT_EPOCH": 78193, "BSTAR": 7.571e-05, "MEAN_MOTION_DOT": 8.3e-07, "MEAN_MOTION_DDOT": 0}, "tle": {"line1": "1 36519U 10017A   25343.54165367  .00000083  00000+0  75710-4 0  9991", "line2": "2 36519  82.9616  29.0627 0034860 297.2558 172.1240 13.71648838781937"}}, "geometry": {"type": "Point", "coordinates": [22.265030266179, -41.54293201853979]}}]}